YAOGAN-43 01G           
1 60464U 24148G   26068.44348481  .00010133  00000+0  35873-3 0  9993
2 60464  35.0006  62.0013 0007382 306.3543  53.6492 15.28332833 87004
STARLINK-34833          
1 65218U 25176W   26068.45919441  .00030699  00000+0  10451-2 0  9991
2 65218  53.1574 153.9056 0001028  74.9373 285.1742 15.30175990 33085
